CTC1_L_00041016-03
1 10062U 23351IK  26075.70030093  .00000000  00000+0  00000-0 0  9994
2 10062  45.0000 180.0000 0000000   0.0000   0.0000 15.59190035    18
CTC1_L_00041016-04
1 10063U 24598UM  26075.70030093  .00000000  00000+0  00000-0 0  9999
2 10063  45.0000 180.0000 0000000   0.0000  90.0000 15.59190035    18
CTC1_L_00041017-01
1 10064U 24988WM  26075.70030093  .00000000  00000+0  00000-0 0  9993
2 10064  45.0000 192.0000 0000000   0.0000 192.0000 15.59190035    15
CTC1_L_00041017-02
1 10065U 25549DZ  26075.70030093  .00000000  00000+0  00000-0 0  9998
2 10065  45.0000 192.0000 0000000   0.0000 282.0000 15.59190035    16
CTC1_L_00041017-03
1 10066U 26445LK  26075.70030093  .00000000  00000+0  00000-0 0  9995
2 10066  45.0000 192.0000 0000000   0.0000  12.0000 15.59190035    18
CTC1_L_00041017-04
1 10067U 23558GC  26075.70030093  .00000000  00000+0  00000-0 0  9998
2 10067  45.0000 192.0000 0000000   0.0000 102.0000 15.59190035    19
CTC1_L_00041018-01
1 10068U 26554KI  26075.70030093  .00000000  00000+0  00000-0 0  9998
2 10068  45.0000 204.0000 0000000   0.0000 204.0000 15.59190035    17
CTC1_L_00041018-02
1 10069U 22717RK  26075.70030093  .00000000  00000+0  00000-0 0  9996
2 10069  45.0000 204.0000 0000000   0.0000 294.0000 15.59190035    17
CTC1_L_00041018-03
1 10070U 23064CI  26075.70030093  .00000000  00000+0  00000-0 0  9994
2 10070  45.0000 204.0000 0000000   0.0000  24.0000 15.59190035    10
CTC1_L_00041018-04
1 10071U 22516SJ  26075.70030093  .00000000  00000+0  00000-0 0  9996
2 10071  45.0000 204.0000 0000000   0.0000 114.0000 15.59190035    11
CTC1_L_00041019-01
1 10072U 22834VB  26075.70030093  .00000000  00000+0  00000-0 0  9990
2 10072  45.0000 216.0000 0000000   0.0000 216.0000 15.59190035    18
CTC1_L_00041019-02
1 10073U 25403QL  26075.70030093  .00000000  00000+0  00000-0 0  9996
2 10073  45.0000 216.0000 0000000   0.0000 306.0000 15.59190035    19
CTC1_L_00041019-03
1 10074U 25544GP  26075.70030093  .00000000  00000+0  00000-0 0  9993
2 10074  45.0000 216.0000 0000000   0.0000  36.0000 15.59190035    10
CTC1_L_00041019-04
1 10075U 23798QG  26075.70030093  .00000000  00000+0  00000-0 0  9993
2 10075  45.0000 216.0000 0000000   0.0000 126.0000 15.59190035    11
CTC1_L_00041020-01
1 10076U 24953CB  26075.70030093  .00000000  00000+0  00000-0 0  9998
2 10076  45.0000 228.0000 0000000   0.0000 228.0000 15.59190035    18
CTC1_L_00041020-02
1 10077U 24216GI  26075.70030093  .00000000  00000+0  00000-0 0  9991
2 10077  45.0000 228.0000 0000000   0.0000 318.0000 15.59190035    19
CTC1_L_00041020-03
1 10078U 23167NH  26075.70030093  .00000000  00000+0  00000-0 0  9996
2 10078  45.0000 228.0000 0000000   0.0000  48.0000 15.59190035    10
CTC1_L_00041020-04
1 10079U 23406IO  26075.70030093  .00000000  00000+0  00000-0 0  9993
2 10079  45.0000 228.0000 0000000   0.0000 138.0000 15.59190035    11
CTC1_L_00041021-01
1 10080U 23206FG  26075.70030093  .00000000  00000+0  00000-0 0  9993
2 10080  45.0000 240.0000 0000000   0.0000 240.0000 15.59190035    11
CTC1_L_00041021-02
1 10081U 26094CT  26075.70030093  .00000000  00000+0  00000-0 0  9992
2 10081  45.0000 240.0000 0000000   0.0000 330.0000 15.59190035    12
CTC1_L_00041021-03
1 10082U 25851NS  26075.70030093  .00000000  00000+0  00000-0 0  9993
2 10082  45.0000 240.0000 0000000   0.0000  60.0000 15.59190035    13
CTC1_L_00041021-04
1 10083U 25405GF  26075.70030093  .00000000  00000+0  00000-0 0  9999
2 10083  45.0000 240.0000 0000000   0.0000 150.0000 15.59190035    14
CTC1_L_00041022-01
1 10084U 26511GC  26075.70030093  .00000000  00000+0  00000-0 0  9999
2 10084  45.0000 252.0000 0000000   0.0000 252.0000 15.59190035    11
CTC1_L_00041022-02
1 10085U 22244AC  26075.70030093  .00000000  00000+0  00000-0 0  9999
2 10085  45.0000 252.0000 0000000   0.0000 342.0000 15.59190035    12
CTC1_L_00041022-03
1 10086U 22895KC  26075.70030093  .00000000  00000+0  00000-0 0  9992
2 10086  45.0000 252.0000 0000000   0.0000  72.0000 15.59190035    13
CTC1_L_00041022-04
1 10087U 23255XU  26075.70030093  .00000000  00000+0  00000-0 0  9994
2 10087  45.0000 252.0000 0000000   0.0000 162.0000 15.59190035    14
CTC1_L_00041023-01
1 10088U 23336MI  26075.70030093  .00000000  00000+0  00000-0 0  9995
2 10088  45.0000 264.0000 0000000   0.0000 264.0000 15.59190035    11
CTC1_L_00041023-02
1 10089U 22816YI  26075.70030093  .00000000  00000+0  00000-0 0  9998
2 10089  45.0000 264.0000 0000000   0.0000 354.0000 15.59190035    12
CTC1_L_00041023-03
1 10090U 22308AO  26075.70030093  .00000000  00000+0  00000-0 0  9996
2 10090  45.0000 264.0000 0000000   0.0000  84.0000 15.59190035    14
CTC1_L_00041023-04
1 10091U 26789YA  26075.70030093  .00000000  00000+0  00000-0 0  9994
2 10091  45.0000 264.0000 0000000   0.0000 174.0000 15.59190035    15
CTC1_L_00041024-01
1 10092U 25081KP  26075.70030093  .00000000  00000+0  00000-0 0  9999
2 10092  45.0000 276.0000 0000000   0.0000 276.0000 15.59190035    12
CTC1_L_00041024-02
1 10093U 25244HG  26075.70030093  .00000000  00000+0  00000-0 0  9991
2 10093  45.0000 276.0000 0000000   0.0000   6.0000 15.59190035    14
CTC1_L_00041024-03
1 10094U 25266J   26075.70030093  .00000000  00000+0  00000-0 0  9996
2 10094  45.0000 276.0000 0000000   0.0000  96.0000 15.59190035    14
CTC1_L_00041024-04
1 10095U 23912UY  26075.70030093  .00000000  00000+0  00000-0 0  9993
2 10095  45.0000 276.0000 0000000   0.0000 186.0000 15.59190035    15
CTC1_L_00041025-01
1 10096U 26920JH  26075.70030093  .00000000  00000+0  00000-0 0  9996
2 10096  45.0000 288.0000 0000000   0.0000 288.0000 15.59190035    12
CTC1_L_00041025-02
1 10097U 22841YJ  26075.70030093  .00000000  00000+0  00000-0 0  9995
2 10097  45.0000 288.0000 0000000   0.0000  18.0000 15.59190035    14
CTC1_L_00041025-03
1 10098U 26106HQ  26075.70030093  .00000000  00000+0  00000-0 0  9994
2 10098  45.0000 288.0000 0000000   0.0000 108.0000 15.59190035    15
CTC1_L_00041025-04
1 10099U 24969TI  26075.70030093  .00000000  00000+0  00000-0 0  9990
2 10099  45.0000 288.0000 0000000   0.0000 198.0000 15.59190035    15
CTC1_L_00041026-01
1 10100U 24451RE  26075.70030093  .00000000  00000+0  00000-0 0  9999
2 10100  45.0000 300.0000 0000000   0.0000 300.0000 15.59190035    18
CTC1_L_00041026-02
1 10101U 25899KE  26075.70030093  .00000000  00000+0  00000-0 0  9997
2 10101  45.0000 300.0000 0000000   0.0000  30.0000 15.59190035    19
CTC1_L_00041026-03
1 10102U 23283AY  26075.70030093  .00000000  00000+0  00000-0 0  9993
2 10102  45.0000 300.0000 0000000   0.0000 120.0000 15.59190035    10
CTC1_L_00041026-04
1 10103U 26293V   26075.70030093  .00000000  00000+0  00000-0 0  9998
2 10103  45.0000 300.0000 0000000   0.0000 210.0000 15.59190035    11
CTC1_L_00041027-01
1 10104U 24589SO  26075.70030093  .00000000  00000+0  00000-0 0  9995
2 10104  45.0000 312.0000 0000000   0.0000 312.0000 15.59190035    18
CTC1_L_00041027-02
1 10105U 23326C   26075.70030093  .00000000  00000+0  00000-0 0  9994
2 10105  45.0000 312.0000 0000000   0.0000  42.0000 15.59190035    19
CTC1_L_00041027-03
1 10106U 25813VN  26075.70030093  .00000000  00000+0  00000-0 0  9998
2 10106  45.0000 312.0000 0000000   0.0000 132.0000 15.59190035    10
CTC1_L_00041027-04
1 10107U 24877TV  26075.70030093  .00000000  00000+0  00000-0 0  9998
2 10107  45.0000 312.0000 0000000   0.0000 222.0000 15.59190035    11
CTC1_L_00041028-01
1 10108U 26833HH  26075.70030093  .00000000  00000+0  00000-0 0  9993
2 10108  45.0000 324.0000 0000000   0.0000 324.0000 15.59190035    18
CTC1_L_00041028-02
1 10109U 22449PX  26075.70030093  .00000000  00000+0  00000-0 0  9993
2 10109  45.0000 324.0000 0000000   0.0000  54.0000 15.59190035    19
CTC1_L_00041028-03
1 10110U 26456C   26075.70030093  .00000000  00000+0  00000-0 0  9997
2 10110  45.0000 324.0000 0000000   0.0000 144.0000 15.59190035    11
CTC1_L_00041028-04
1 10111U 26719FZ  26075.70030093  .00000000  00000+0  00000-0 0  9990
2 10111  45.0000 324.0000 0000000   0.0000 234.0000 15.59190035    12
CTC1_L_00041029-01
1 10112U 22023VS  26075.70030093  .00000000  00000+0  00000-0 0  9995
2 10112  45.0000 336.0000 0000000   0.0000 336.0000 15.59190035    19
CTC1_L_00041029-02
1 10113U 22444GU  26075.70030093  .00000000  00000+0  00000-0 0  9993
2 10113  45.0000 336.0000 0000000   0.0000  66.0000 15.59190035    10
CTC1_L_00041029-03
1 10114U 24473NP  26075.70030093  .00000000  00000+0  00000-0 0  9998
2 10114  45.0000 336.0000 0000000   0.0000 156.0000 15.59190035    11
CTC1_L_00041029-04
1 10115U 22529AM  26075.70030093  .00000000  00000+0  00000-0 0  9999
2 10115  45.0000 336.0000 0000000   0.0000 246.0000 15.59190035    12
CTC1_L_00041030-01
1 10116U 26786LP  26075.70030093  .00000000  00000+0  00000-0 0  9999
2 10116  45.0000 348.0000 0000000   0.0000 348.0000 15.59190035    19
CTC1_L_00041030-02
1 10117U 22603JV  26075.70030093  .00000000  00000+0  00000-0 0  9994
2 10117  45.0000 348.0000 0000000   0.0000  78.0000 15.59190035    10
CTC1_L_00041030-03
1 10118U 23839MX  26075.70030093  .00000000  00000+0  00000-0 0  9997
2 10118  45.0000 348.0000 0000000   0.0000 168.0000 15.59190035    11
CTC1_L_00041030-04
1 10119U 22484IN  26075.70030093  .00000000  00000+0  00000-0 0  9993
2 10119  45.0000 348.0000 0000000   0.0000 258.0000 15.59190035    12
